License #,Name,Address,City,Zip,Phone #
1008132,STAINLESS AESTHETICS INC,P O BOX 38,BIGGS,95917,(530) 680-9894
995086,FOWLER METAL WORKS,12458 MORONI ROAD,MERIDIAN,95957,(530) 632-0780
850517,BERG JAMES M,P O BOX 252,GUINDA,95637,(530) 796-2141
923542,BUILTWARE FABRICATION INC,4569 SKYWAY DRIVE,OLIVEHURST,95961,(530) 634-0162
1036454,WEIDNERS WELDING,4433 SNOOK AVE,CLEARLAKE,95422,(707) 530-1349
1012002,DMIRON PLUS,P O BOX 368,KNIGHTS LANDING,95645,(530) 312-1314
994500,GIFFEN WELDING,P O BOX 3,MARYSVILLE,95901,(530) 701-1536
1098642,NEXT LEVEL WELDING,7307 DOC ADAMS RD,MARYSVILLE,95901,(530) 788-3372
1047530,KRYPTONITE METAL WORKS,P O BOX 6513,CHICO,95927,(530) 961-2104
1045579,UNIQ STEEL INC,417 STIMPSON RD,OROVILLE,95965,(530) 871-9300
934420,BALL RIG WELDING LLC,68 STUART CT,OROVILLE,95965,(530) 490-5795
1026973,THOMAS R WELDING,900 GREENWICH DR,CHICO,95926,(530) 320-4317
803951,STEEL-CRETE INC,1692 MANGROVE AVENUE #504,CHICO,95926,(530) 399-0032
1099525,DR WELDING,199 E WASHINGTON AVE,CHICO,95926,(530) 864-6661
976753,BAXTER WELDING & FABRICATION LLC,8 DORR LANE,OROVILLE,95966,(530) 282-6825
1036434,GARGES INDUSTRIAL WELDING,2561 PALM ST,NICOLAUS,95659,(530) 788-6993
1050734,CAST & CUSTOM WELDING,1870 NORWOOD DR,PARADISE,95969,(530) 228-4166
814834,HARKER'S WELDING,P O BOX 11,BROWNS VALLEY,95918,(916) 716-5556
1053297,MAVERICK WELDING,5923 MARYSVILLE RD,BROWNS VALLEY,95918,(530) 635-5655
1086204,OREGEL WELDING SERVICE CORP,17381 COUNTY RD 97,WOODLAND,95695,(530) 362-1049
795173,PERFORMANCE WELDING,P O BOX 663,PLEASANT GROVE,95668,(916) 225-2974
1062427,BW WELDING,428 BRETT COURT,CHICO,95973,(530) 519-3963
1053665,SHADOW FAB WELDING & FABRICATION,PO BOX 2192,WOODLAND,95776,(530) 237-6312
550297,WOODLAND WELDING WORKS,PO BOX 1194,WOODLAND,95776,(530) 666-5531
1081577,AUTHENTIC WELDING & FABRICATION,248 CHAMBERS DR,LINCOLN,95648,(530) 249-1875
1055068,FOX WELDING,3030 WISE ROAD,LINCOLN,95648,(541) 410-2137
1051925,ATLAS STEEL,PO BOX 442,LINCOLN,95648,(916) 884-4769
1005760,MC DOWELL J WELDING,P O BOX 1210,WINTERS,95694,(530) 661-6006
1084125,BOLES WELDING,1314 TEHAMA STREET,CORNING,96021,(530) 209-4161
522993,NEWMAN WELDING INC,17276 CATTLE DR,ROUGH AND READY,95975,(530) 432-3885
1010101,SMART MOBILE WELDING AND FABRICATION,8928 ORO QUINCY HIGHWAY,BERRY CREEK,95916,(530) 282-2366
1067032,ELITE WELDING AND MANUFACTURING INC,5098 FOOTHILLS BLVD STE 3-315,ROSEVILLE,95747,(262) 825-8290
1000931,MCCARTHY CUSTOM WELDING,1032 HAVERHILL STREET,WEST SACRAMENTO,95691,(530) 200-0449
1016574,LUCAS JOE WELDING,2994 SPRUCE WAY,WEST SACRAMENTO,95691,(916) 856-0214
423144,COBB MOUNTAIN ENGINEERING,4252 LAKESHORE BLVD,LAKEPORT,95453,(707) 355-0063
788201,S & V WELDING SERVICE,5908 20TH STREET,RIO LINDA,95673,(916) 871-5707
546057,STRUCTURE WELD,6828 7TH AVE,RIO LINDA,95673,(916) 256-8557
1040901,J D W WELDING,13814 GARDEN BAR RD,GRASS VALLEY,95949,(916) 806-4507
1068949,CTM WELDING FABRICATOR,12955 FRANCIS DRIVE,GRASS VALLEY,95949,(530) 559-3866
1033766,NAVARRO WELDING,2910 SACRAMENTO ST,NAPA,94558,(707) 666-5145
744958,OAKVILLE PUMP SERVICE INC,2310 LAUREL STREET SUITE 1,NAPA,94558,(707) 944-2471
897617,HOSS CUSTOM WELDING & FABRICATION,1248 TAMALPAIS STREET,NAPA,94558,(707) 815-3088
814859,QTCINC,4175 CINCINNATI AVENUE,ROCKLIN,95765,(916) 315-0500
909032,OGLETREE'S INC,935 VINTAGE AVENUE,ST HELENA,94574,(707) 963-3537
1075669,ROWLAND'S MOBILE WELDING,8045 PRIOR WAY,ANTELOPE,95843,(916) 370-2589
794204,DOLVER COMPANY INC,4936 PATROL ROAD,MC CLELLAN,95652,(916) 947-1122
1007595,ATLAS WELDCO,P O BOX 13,ROSEVILLE,95678,(916) 826-7415
685741,ED'S,PO BOX 1064,ROSEVILLE,95678,(916) 782-7421
918630,BARNETT'S PORTABLE WELDING SERVICE,3668 PLYMOUTH DRIVE,NORTH HIGHLANDS,95660,(916) 616-5288
994214,ANDERSEN ERIK WELDING,3608 MOUNTAIN VIEW DR,ROCKLIN,95677,(530) 798-8908
875132,S W S ENGINEERING AND CONSTRUCTION INC,3000 ASPEN DRIVE,PENRYN,95663,(916) 765-6800
1007366,HABBCO WELDING,4425 CALCUTTA WAY,SACRAMENTO,95842,(916) 880-6815
855966,C & T WELDING INC,P O BOX 258,NEWCASTLE,95658,(916) 663-1290
619989,KYLES PORTABLE WELDING,P O BOX 1195,NEWCASTLE,95658,(916) 956-9353
956935,EAGLE WELDING SERVICES INC,PO BOX 601554,SACRAMENTO,95860,(916) 600-8993
598348,ALASKA WELDING,5411 LEADER AVE,SACRAMENTO,95841,(805) 674-7639
854324,A 1 FABRICATION & WELDING INC,4730 MYRTLE AVE SUITE D,SACRAMENTO,95841,(916) 349-8700
1075775,ELITE WELDING,7429 BROOK DALE DR,CITRUS HEIGHTS,95621,(916) 904-6735
690109,LINZY ENTERPRISES,7724 OAKWOOD LANE,CITRUS HEIGHTS,95621,(916) 745-4148
763223,ADVANCED WELD DESIGN,7101 CARRIAGE DRIVE,CITRUS HEIGHTS,95621,(916) 591-3498
746324,GARZINI WELDING,PO BOX 724,GEYSERVILLE,95441,(707) 857-4858
1067446,WELDON'S WELDING,2264 TAMARACK WAY,SACRAMENTO,95821,(916) 346-7331
999274,MACFAB WELDING,5960 JETTON LANE,LOOMIS,95650,(916) 918-9266
1055117,NEVES WELD & FAB INC,7117 HATFIELD CT,CITRUS HEIGHTS,95610,(937) 622-9611
763635,W J TRIPP SERVICE CO,P O BOX 7611,AUBURN,95604,(530) 888-8287
1031627,FIX'S WELDING & FABRICATION,306 SHINING HORSE WAY,VACAVILLE,95688,(916) 214-5377
892491,TRITON MOBILE WELDING,312 SHAMROCK COURT,VACAVILLE,95688,(707) 333-2102
1069132,MATTHEWS METAL FABRICATION INCORPORATED,2010 HARBISON DR STE A #240,VACAVILLE,95688,(281) 709-7997
907772,THOMPSON WELDING,4734 NELROY WAY,CARMICHAEL,95608,(916) 482-9859
875233,KING WELDING FABRICATION,3200 NORTHROP AVE,SACRAMENTO,95864,(916) 716-9690
431508,PESZYNSKI ANDREW F,1069 WILHAGGIN PARK LANE,SACRAMENTO,95864,(916) 381-2121
918844,SPECIALTY MECHANICAL,5643 BOLTRES STREET,ORANGEVALE,95662,(916) 607-6749
1051188,LARSSON ZACH WELDING,8659 BLYTH AVE,ORANGEVALE,95662,(916) 747-1190
1069374,MASON'S WELDING INC,8920 FORTUNA WAY,ORANGEVALE,95662,(916) 505-2638
1058628,ADVANCED WELDING SERVICE,6628 HAZEL AVENUE,ORANGEVALE,95662,(916) 662-4006
800899,LARSSON WELDING,8971 COAN LANE,ORANGEVALE,95662,(916) 201-3387
829965,VALLEY ARBOR PROS,5005 PAPAYA DRIVE,FAIR OAKS,95628,(916) 798-6998
714770,TAURUS WELDING INC,PO BOX 1082,FAIR OAKS,95628,(916) 812-2855
978395,TRIDENT WELDING,P O BOX 1064,FAIR OAKS,95628,(916) 239-9326
1016272,MOLTEN METAL WORKS,P O BOX 388,WEIMAR,95736,(530) 682-2574
857952,BELLI CORPORATION THE,P O BOX 338,HEALDSBURG,95448,(707) 431-9342
942988,BLUE BARN ARTS INC,1198 CHIQUITA RD,HEALDSBURG,95448,(707) 889-4986
800781,WELDING SHOP THE,138 W NORTH STREET,HEALDSBURG,95448,(707) 433-5108
939974,AARON'S WELDING,9400 MARCOLA CT,SACRAMENTO,95826,(916) 717-1059
914165,CHADWICK'S WELDING,590 RAILROAD AVENUE,NEVADA CITY,95959,(530) 414-5045
785168,C W I W INC,320 RIESLING ST,CLOVERDALE,95425,(707) 894-0421
778770,DIMENSIONS IN METAL INC,P O BOX 545,CLOVERDALE,95425,(707) 894-2586
1023762,FLETCHER FABRICATION LLC,305 NORTHSTAR LANE,CLOVERDALE,95425,(707) 894-2889
799658,WARD M J WELDING,1966 KLAMATH RIVER DRIVE,RANCHO CORDOVA,95670,(916) 812-2265
1019931,WILLY'S CUSTOM METAL,11355 B PYRITES WAY 17B,RANCHO CORDOVA,95670,(559) 392-2526
981256,LV'S IRON WORK,3553 BARDOLINO WAY,RANCHO CORDOVA,95670,(916) 947-2073
933688,AVERYS WELDING,12155 OLD STAGECOACH RD,GRASS VALLEY,95945,(916) 847-8062
921590,ACE WELDING,12819 LOMA RICA DRIVE,GRASS VALLEY,95945,(530) 274-8965
1096912,PRECISION WELDING,107 CYPRESS HILL DR,GRASS VALLEY,95945,(530) 748-9355
625017,CAPITAL VALLEY FABRICATION,P O BOX 279321,SACRAMENTO,95827,(916) 599-1575
1006101,MARTIN'S STEEL WORKS INC,7284 LEWIS RD,VACAVILLE,95687,(707) 678-6120
879332,SKILLIE CONSTRUCTORS,P O BOX 285,ELMIRA,95625,(707) 515-9353
1049254,EDWARDS WELDING SOLUTIONS,7028 EDINBURGH COURT,WINDSOR,95492,(707) 318-1076
833262,ANDRADE JERRY J,9416 ELSIE WAY,WINDSOR,95492,(707) 291-5147
1003555,WELDING CONTRACTOR,P O BOX 974,WINDSOR,95492,(707) 570-9806
793935,CC & M WELDING & INSTALLATION,244 COLGAN AVE,SANTA ROSA,95404,(707) 577-8283
664856,MOODY BRETT,4548 FABLE CT,SANTA ROSA,95404,(707) 843-3341
954958,K S L HANSEN ENTERPRISES INC DBA DAVENPORT'S WINERY MNTC,5702 ST HELENA ROAD,SANTA ROSA,95404,(707) 292-0129
1019130,PETERSON WELDING AND FABRICATION,PO BOX 1496,UKIAH,95482,(707) 972-5285
754318,PETERSON LANCE EDWARD,651 DORA AVE,UKIAH,95482,(707) 272-7458
1077966,DELGADO DAVID WELDING,461 CHABLIS DR,UKIAH,95482,(707) 489-8444
638025,O T S WELDING,3450 A NORTH STATE STREET,UKIAH,95482,(707) 462-0660
1065268,DIAZ CHRISTOPHER B,4023 COFFEY LANE,SANTA ROSA,95403,(707) 888-9290
739078,TIM SCHEFER MECHANICAL,3034 HARDIES LANE,SANTA ROSA,95403,(707) 758-1155
1035253,A J M GENERAL CONSTRUCTION,2134 SMOKETREE CT,SANTA ROSA,95403,(707) 579-9290
1080783,STRIKE ARC,3095 MARC WAY,SANTA ROSA,95403,(707) 696-8284
864850,JAY'S MOBILE WELDING & FABRICATION,8581 YOUNGER CREEK DR STE 200,SACRAMENTO,95828,(916) 203-8082
674599,DAVISON IRON WORKS INC,8845 ELDER CREEK ROAD,SACRAMENTO,95828,(916) 381-2121
1025262,WILSON CUSTOM WELDING INC,50150 COURTLAND RD,CLARKSBURG,95612,(916) 479-1203
1071699,PARKER WELDING,10950 CAREY LANE,RED BLUFF,96080,(530) 526-1171
1072025,LENTEC INC,859 WASHINGTON STREET #205,RED BLUFF,96080,(530) 529-1878
1073628,HENRY'S MOBILE WELDING,11926 HWY 99E,RED BLUFF,96080,(530) 526-6671
575633,LENTEC,14611 NEVIS RD,RED BLUFF,96080,(530) 529-1878
1082162,WESTFALL WELDING AND FABRICATION,920 ALDER STREET,RED BLUFF,96080,(530) 736-8054
1097084,HIRED GUNS RIG WELDING,P O BOX 57,RED BLUFF,96080,(949) 677-8262
777548,STUART WELDING,P O BOX 9571,SANTA ROSA,95405,(707) 545-5836
916005,DENNY'S WELDING & ASSOCIATES,P O BOX 1795,GLEN ELLEN,95442,(707) 292-1472
1088544,M V WELDING,11311 FOLSOM BLVD BLDG A,RANCHO CORDOVA,95742,(916) 504-7569
973270,FAST TRACK MOBILE WELDING & FABRICATION,7600 DUNBLANE WAY,ELK GROVE,95758,(916) 897-1384
335050,KAUTH BROS INC,PO BOX 6822,SANTA ROSA,95406,(707) 545-5915
1002706,TORCHED METAL ART,1100 SHADOWFAX COURT,EL DORADO HILLS,95762,(916) 765-1400
915492,PRODUCT LINES UNLIMITED,P O BOX 179,REDWOOD VALLEY,95470,(707) 485-9399
1091135,FAIRALL BEN,711 ROAD N,REDWOOD VALLEY,95470,(707) 671-3379
1044956,D T FABRICATION WELDING,1500 SCENIC WAY,REDWOOD VALLEY,95470,(707) 591-1811
1016757,RITTERS WELDING AND FABRICATION INC,P O BOX 5873,NAPA,94581,(707) 310-5314
991945,CROZ CUSTOM METAL FABRICATION INC,2903 BANYAN COURT,FAIRFIELD,94533,(707) 580-4727
404886,POIRIER LARRY JR,3720 PINER ROAD,SANTA ROSA,95401,(707) 575-8270
552514,NORTHERN MECHANICAL,680 PIEZZI RD,SANTA ROSA,95401,(707) 573-9633
1065854,BROWN WELDING FABRICATIONS,8218 DELOACH WAY,ELK GROVE,95624,(916) 416-6645
987934,ATHEY WAYNE WELDING SERVICE,9560 PORTO ROSA DRIVE,ELK GROVE,95624,(916) 425-6091
1077960,AMERICAN WELDING,9537 SARA ST,ELK GROVE,95624,(916) 838-2025
810565,FAB WORX INC A CALIFORNIA CORPORATION,3100 DUTTON AVE #156 F,SANTA ROSA,95407,(707) 566-7045
1089760,WEAVER'S WELDING,1749 MESA WAY,SANTA ROSA,95407,(707) 757-4059
215233,ONGARO & SONS,2995 DUTTON AVE,SANTA ROSA,95407,(707) 579-3511
587856,CARL'S WELDING & REPAIR SERVICE,539 CALIFORNIA DRIVE SOUTH,NAPA,94559,(707) 695-9722
950845,ALLWELD METAL FABRICATION INC,527 CALIFORNIA BLVD,NAPA,94559,(707) 252-7875
721808,MC DANIEL MECHANICAL CONSTRUCTION INC,1003 TERRA VERDE DRIVE,NAPA,94559,(707) 529-9005
996450,ALFONSO'S WELDING,2063 CORONADO AVE,NAPA,94559,(707) 753-0622
1067644,SLAYBUILT WELDING INC,15 ARBOREO STREET,NAPA,94559,(707) 227-2580
1067435,FARMER BEN,P O BOX 262,NAPA,94559,(707) 312-0439
1015281,ATKINSON WELDING,27660 BLUE LAKE LANE,WILLITS,95490,(707) 841-6787
802714,EYEBALL ENTERPRISES INC,PO BOX 380,VINEBURG,95487,(707) 996-5744
1029406,WELDING SERVICES,5055 BUSINESS CENTER DR,FAIRFIELD,94534,(707) 330-9087
527596,DACASA CONSTRUCTION,PO BOX 1754,SEBASTOPOL,95473,(707) 280-8973
1008475,CHARLES CUSTOM WELDING,705 GOODWIN AVENUE,PENNGROVE,94951,(707) 570-5050
687916,ARGENALWELDING INC,P O BOX 879,PENNGROVE,94951,(707) 765-5993
680884,BARNDT'S WELDING INC,141 HELMAN LANE,COTATI,94931,(707) 585-3114
1078354,DOUBLE S WELDING & FABRICATION INC,18350 CLAYTON AVE,SONOMA,95476,(707) 332-2315
985622,WELLANDER CORPORATION,P O BOX 1324,SONOMA,95476,(707) 934-8198
543558,ARBOR FENCE INC,22660 BROADWAY,SONOMA,95476,(707) 938-3133
791682,WOLFF'S WELDING & FABRICATION INC,21481 8TH ST EAST STE 8,SONOMA,95476,(707) 933-8590
989630,WILLY'S MOBILE WELDING & FABRICATION,4636 DAYWALT RD,SEBASTOPOL,95472,(707) 322-6742
871896,COMPTON FABRICATION,4737 VINEHILL ROAD,SEBASTOPOL,95472,(707) 829-1663
1066386,MILLER WELDING,PO BOX 701,WILTON,95693,(916) 502-5961
1042435,L & S FABCO QUALITY CONTRACTORS,P O BOX 418,WILTON,95693,(916) 305-1052
1047698,DIABLO METAL WORKS,3446 LIBERTY ISLAND RD,RIO VISTA,94571,(925) 584-2748
917104,MOGUL WELDING,2940 CENTENNIAL COURT,PLACERVILLE,95667,(916) 475-4369
545905,DUGGER'S WELDING INC,3644 COOL WATER COURT,PLACERVILLE,95667,(530) 626-3844
1085293,RT MOBILE WELDING INC,4062 STAGE COURT SUITE E2,PLACERVILLE,95667,(530) 677-1626
968392,EL DORADO METALWORKS,4038 SAYOMA LANE,PLACERVILLE,95667,(916) 390-8537
652503,GOLDEN SIERRA'S PORTABLE,P O BOX 284,FORESTHILL,95631,(530) 367-2767
348449,GOEBEL CONSTRUCTION INC,P O BOX 2745,PETALUMA,94953,(707) 763-0088
1092359,REDWOOD WELDING,PO BOX 2632,PETALUMA,94953,(970) 380-0702
1062997,SANTA CRUZ METAL WORKS,6100 ENTERPRISE DR STE E,DIAMOND SPRINGS,95619,(831) 588-0788
662082,ALL POINTS WELDING,6641 MERCHANDISE WAY,DIAMOND SPRINGS,95619,(530) 295-9380
654290,A - 1 CRANE SERVICE,P O BOX 853,COTTONWOOD,96022,(530) 347-6947
872231,M & M MOBILE WELDING,P O BOX 21,COTTONWOOD,96022,(530) 347-9626
846525,J W WELDING,55 SPRINGSTOWN CTR  151,VALLEJO,94591,(707) 334-3974
1006414,CALIFORNIA HOT WORK,152 DARTMOUTH PLACE,BENICIA,94510,(805) 796-7307
1046265,ZAPPETINI INC,436 PETALUMA BLVD NORTH,PETALUMA,94952,(707) 774-6003
1089299,ACE FAB WELDING,1530 ARMSTRONG AVE #119,NOVATO,94945,(415) 815-6331
725470,MURPHY'S TOUCH INC,2880 ESPINA LOMA DR,CAMINO,95709,(530) 647-2352
914073,MC CLENAHAN BRUCE,5011 CARBONDALE RD,PLYMOUTH,95669,(916) 769-6527
575796,SUKOSKY JEFF,6632 WHISPERING CANYON DR,ANDERSON,96007,(415) 971-8734
463052,NORTHBAY WELDING INC,P O BOX 2656,NOVATO,94948,(415) 798-1960
512145,CROSSWIND PROPERTIES,P O BOX 120,NOVATO,94948,(415) 899-9908
635502,BOES TOM METALWORKS,785 MC CLAY ROAD,NOVATO,94947,(415) 295-7625
582578,RICK'S WELDING & ENGINEERING,35 KAY CT,OAKLEY,94561,(925) 625-3516
831234,WILLIAMS HAROLD L WELDING COMPANY,4339 BORDEAUX DR,OAKLEY,94561,(925) 518-5885
733732,FRED'S WELDING,2620 OAKLEY RD,OAKLEY,94561,(925) 625-3600
950460,NICOLE WELDING INC,20 BROADWAY LANE,OAKLEY,94561,(925) 679-9636
613093,MATAMOROS WELDING,1269 LAUREL RD,OAKLEY,94561,(925) 625-1100
1029269,SUPERIOR WELDING CORPORATION,114 SILVER BELL WAY,OAKLEY,94561,(415) 573-7285
889350,MAFFUCCI GENE WELDING,P O BOX 755,MARSHALL,94940,(415) 663-1639
620205,ONSPOT WELDING & DESIGN INC,32 GALLI DR STE 6,NOVATO,94949,(415) 382-1091
999486,WYATT STUDIO WELDING,166 HAMILTON DRIVE SUITE B,NOVATO,94949,(415) 559-9131
728903,ROBERTS WELDING,209 THOMAS WAY,PITTSBURG,94565,(925) 348-0185
866797,U S T TESTING SERVICES INC,1635 CHALLENGE DRIVE,CONCORD,94520,(925) 288-8944
199902,CONCO,5141 COMMERCIAL CIRCLE,CONCORD,94520,(925) 925-6631
1098887,ELO SPECIALITY WELDING,1183 PROMENADE ST,HERCULES,94547,(661) 364-1918
1089349,AG WELDING,1460 KILDARE WAY,PINOLE,94564,(510) 551-8783
772372,SEQUOIA VISTA ENTERPRISES INC,39500 COMPTCHE UKIAH RD,MENDOCINO,95460,(707) 937-6061
1027515,L N C EXCAVATING AND CONSTRUCTION,PO BOX 1195,IONE,95640,(209) 245-3417
1079694,ARTHUR JOHN WELDING INC,3994 WARBLER DR,ANTIOCH,94509,(925) 577-8893
1092723,MCGEEHAN PORTABLE WELDING AND FABRICATION,1900 SUGAR PINE CT,ANTIOCH,94509,(650) 222-5640
1001289,WOODS WELDING,3569 MARKLEY CREEK DRIVE,ANTIOCH,94509,(925) 470-6995
881725,DALLEGGE WELDING,6915 J AND J LANE,REDDING,96002,(530) 356-2686
1083854,TWISTED STEEL WELDING LLC,2587 HAWN AVENUE,REDDING,96002,(530) 744-4216
926807,DANCO SERVICE,4318 PEMBROKE DR,CONCORD,94521,(925) 878-5770
806793,BIG SKY WELDING,5231 LA CORTE BONITA,CONCORD,94521,(925) 689-6301
1012880,TERNES MOBILE WELDING,19 TRAILSIDE PLACE,PLEASANT HILL,94523,(925) 783-3591
829472,FIELD WELDING SERVICES,156 LEONARD DR,CONCORD,94518,(925) 890-0295
1081549,CANO PROCESSING WELDING AND FABRICATION,6824 OAKUM WY,STOCKTON,95219,(209) 213-8428
865798,ARTISTIC METALWORKS AND DESIGN,5066 NORTONVILLE WAY,ANTIOCH,94531,(510) 606-3895
1098634,WESTSIDE WELDING,PO BOX 441,KNIGHTSEN,94548,(925) 250-1285
800603,ACW STEEL,720 12TH STREET,RICHMOND,94801,(415) 861-8410
1033075,BAYLAND WELDING FABRICATION,815 10TH STREET,RICHMOND,94801,(510) 685-8476
1098257,SALVATO FABRICATION & WELDING,415 DIMM ST,RICHMOND,94805,(510) 316-6248
499501,BAY AREA WELDING AND MAINTENANCE,P O BOX 5303,RICHMOND,94805,(510) 233-3485
1041463,WEST MARIN WELDING,PO BOX 1064,WOODACRE,94973,(415) 497-1909
357145,IRISH & SON WELDING INC,59 TAMAL ROAD BOX 4,FOREST KNOLLS,94933,(415) 250-7260
1084630,A R G MOBILE WELDING,637 STEGE AVENUE,RICHMOND,94804,(510) 253-5390
844997,BILL'S WELDING,637 STESE AVE,RICHMOND,94804,(510) 915-8448
851614,J P WELDING,P O BOX 233,WALLACE,95254,(661) 332-9899
737868,ONETO THOMAS A JR,7401 KIT LANE,JACKSON,95642,(209) 765-6392
976290,GONZALEZ WELDING MOBILE,6201 BRENTWOOD BLVD,BRENTWOOD,94513,(925) 550-6273
947326,PRO WELDER SERVICES,8625 GLACIER POINT DRIVE,STOCKTON,95212,(209) 423-6632
653531,JOLSON WELDING,PO BOX 393,PINE GROVE,95665,(530) 633-2933
1094034,TOP PICK MOBILE WELDING,11110 CLINTON BAR RD,PINE GROVE,95665,(209) 304-6271
429038,MC CUTCHEN N J INC,123 WEST SONORA STREET,STOCKTON,95203,(209) 466-9704
1007588,CARRASCO FABRICATION,214 EDWARDS AVE,STOCKTON,95203,(209) 518-7336
785668,R W WELDING & REPAIR,P O BOX 672,LINDEN,95236,(209) 649-0394
593603,DENTONIS WELDING WORKS INC,801 SOUTH AIRPORT WAY,STOCKTON,95205,(209) 464-4930
722087,DAVES PORTABLE WELDING,P O BOX 3499,TRUCKEE,96160,(530) 362-0960
669683,DON'S WELDING,P O BOX 1805,TRUCKEE,96160,(530) 582-1354
642114,POULIN STEEL FABRICATION INC,P O BOX 186,TRUCKEE,96160,(530) 587-3420
897422,BIG WATER WELDING,P O BOX 648,TAHOE CITY,96145,(530) 581-2161
479643,M G BUILDERS,PO BOX 5715,TAHOE CITY,96145,(530) 906-9790
1078533,BROTHERS WELDING INC,2000 SOLANO WAY,OAKLAND,94606,(510) 410-3865
251700,ALLIED FIRE PROTECTION,555 HIGH STREET,OAKLAND,94601,(510) 533-5516
526206,FARR C M METAL CONSTRUCTION INC,18311 BOLLINGER CANYON ROAD,SAN RAMON,94583,(925) 820-4024
941900,ROSASCO JOHN F WELDING,1055 WHITE LANE,STOCKTON,95215,(209) 481-6093
442114,P GILMORE CONSTRUCTION,5705 WALNUT STREET,OAKLAND,94605,(510) 377-2827
934462,ALL AMERICAN WELDING,23735 CA HWY 88,PIONEER,95666,(209) 295-6208
1051123,T R L WELDING SERVICE,3526 SEVEN HILLS RD,CASTRO VALLEY,94546,(510) 274-5243
1017529,PRO PIPE TEKS INC,266 21ST AVE APT 103,SAN FRANCISCO,94121,(415) 218-6187
1079976,FOX WELDING IRON DESIGNS,P O BOX 1223,CARNELIAN BAY,96140,(530) 386-5175
584263,BROADWAY MECHANICAL - CONTRACTORS INC,873 81ST AVE,OAKLAND,94621,(510) 746-4000
1087226,MSD WELDING AND FABRICATION,1807 57TH ST,OAKLAND,94621,(510) 978-2903
280333,SAND JOSEPH C CO INC,292 CHURCH STREET,SAN FRANCISCO,94114,(415) 621-5200
728525,TOM'S WELDING & FABRICATION,P O BOX 24385,SAN FRANCISCO,94124,(415) 822-7971
985373,J I METAL WORKS,2220 UPLAND ROAD,SAN LEANDRO,94578,(510) 484-9691
744356,BIANCHI FRANK METAL WORKS,P O BOX 82,WEST POINT,95255,(209) 283-4154
769491,DETAIL IRONWORKS,P O BOX 347127,SAN FRANCISCO,94134,(415) 822-8896
1072616,EXCELSIOR WELDING COMPANY,261 MUNICH ST,SAN FRANCISCO,94112,(415) 218-2858
831376,JOEL'S WELDING AND FABRICATION INC,P O BOX 1666,KINGS BEACH,96143,(530) 546-2344
1026526,ROYAL WELDING SERVICES INC,1376 C STREET,HAYWARD,94541,(510) 610-5394
960779,WILD WEST WELDING,577 LEBANON STREET,HAYWARD,94541,(530) 945-5321
604852,PACIFIC WELDING & MACHINE,P O BOX 4117,HAYWARD,94540,(510) 783-2300
838589,PALAVICINI WELDING SERVICE,1216 BRUNSWICK STREET,DALY CITY,94014,(415) 573-9211
1098671,AXELSON IRON SHOP LLC,2184 RUTH AVE,SOUTH LAKE TAHOE,96150,(530) 541-1043
946923,AMUNDSON MICHAEL MOBILE WELDING,961 CAVE ROCK AVENUE,SOUTH LAKE TAHOE,96150,(918) 568-2070
659179,ALPINE METALS,2152 RUTH AVENUE UNIT #4,SOUTH LAKE TAHOE,96150,(530) 541-4180
1077544,BEAR METAL WELDING,927 MUSKWAKI DR,SOUTH LAKE TAHOE,96150,(530) 307-0897
752638,MARELICH MECHANICAL CO INC,24041 AMADOR STREET,HAYWARD,94544,(510) 785-5500
486067,FERGUSON WELDING SERVICE,30050 INDUSTRIAL PARKWAY S W,HAYWARD,94544,(510) 487-5906
1037852,ATR WELDING INC,22962 CLAWITER ROAD STE 5,HAYWARD,94545,(510) 363-2490
635184,J S L CONSTRUCTION INC,1355 CROM ST,MANTECA,95337,(209) 601-0504
1078782,SOUZA FORYST G,30953 COMBS RD,ESCALON,95320,(209) 424-5784
1070411,MVP WELDING,2003 MAIN ST,ESCALON,95320,(209) 518-0970
813284,CREATIVE FABRICATIONS,P O BOX 7452,SOUTH LAKE TAHOE,96158,(530) 400-4660
989501,NORCAL WELDING INC,7924 WEST 11TH STREET,TRACY,95304,(209) 597-8265
632214,PERI STREET WELDING,P O BOX 1178,ALTAVILLE,95221,(209) 736-2690
1045152,EXCEL WELDING CONCEPTS,PO BOX 689,RIPON,95366,(209) 678-7475
1037574,WORKHORSE WELDING LLC,PO BOX 203,MIRANDA,95553,(707) 497-4838
862972,LB CURIEL RACK MAINTENANCE INC,27088 S CORRAL HOLLOW RD,TRACY,95377,(510) 590-6099
989319,LEFEVRE WELDING INC,2511 ISABELLE AVENUE,SAN MATEO,94403,(650) 642-5029
308818,J W MCCLENAHAN CO,2301 PALM AVE,SAN MATEO,94403,(650) 345-1691
915936,ADVANTAGE WELDING,4783 NORTHSTAR WAY,MODESTO,95356,(209) 247-2085
863837,JORDAN CUSTOM WELDING,3604 VISTA VERDE,MODESTO,95356,(209) 613-1588
838816,HAND RAILS UNLIMITED,47365 JAVALINA RD,FREMONT,94539,(510) 623-9610
1024362,M S T CENTROL COAST WELDING,P O BOX 1157,NEWARK,94560,(831) 406-3687
1030477,LEYVA WELDING INC,3339 LA MESA DR #1,SAN CARLOS,94070,(805) 610-2180
863217,HEAGNEY A B METAL FABRICATION,250 INDUSTRIAL RD,SAN CARLOS,94070,(650) 868-7448
865582,A & D WELDING INC,1061 AMERICAN STREET,SAN CARLOS,94070,(650) 593-4040
764039,LYNCH'S ELECTRIC AND WELDING,1672 HONEYSUCKLE ROAD,LIVERMORE,94550,(925) 785-3337
1024933,WELDING SOLUTIONS & FABRICATION,P O BOX 1521,OAKDALE,95361,(209) 988-6518
1038462,RIDDLE INDUSTRIES INC,620 HEDBURG WAY STE 19,OAKDALE,95361,(209) 840-4217
1060436,STAAL CONSTRUCTION AND FABRICATION,5243 LON DALE RD,OAKDALE,95361,(209) 764-8652
1077418,CENCAL WELDING,431 N 1ST AVE,OAKDALE,95361,(209) 604-0288
1068614,G & G WELDING LLC,56 REED RD,OAKDALE,95361,(209) 581-2400
927759,BATES WELDING INC,P O BOX 879,KNIGHTS FERRY,95361,(209) 620-4583
238921,BROWN SHEET METAL AND MECHANICAL INC,1025 WEST F STREET,OAKDALE,95361,(209) 847-0336
1088047,JAMES JORDAN,1820 N CABRILLO HWY,HALF MOON BAY,94019,(650) 465-8519
1023381,BEGADON WELDING & FABRICATION,515 VERDE RD,HALF MOON BAY,94019,(415) 483-6181
1075518,SD MOBILE WELDING & REPAIR LLC,1729 CHARTWELL PL,MODESTO,95355,(209) 416-9449
174777,CHAMPION INDUSTRIAL CONTRACTORS INC,P O BOX 4399,MODESTO,95352,(209) 524-6601
1072018,SPARTAN WELDING,PO BOX 4963,SONORA,95370,(209) 559-0910
911556,SIERRA WELDING FABRICATION INSTALLATION,10596 CALAMITY JANE LANE,JAMESTOWN,95327,(209) 559-2724
822431,HISIDE FABRICATION INC,763 APRICOT AVENUE,PATTERSON,95363,(209) 892-6561
1019708,CLARK NOEL S RIG WELDER,1504 SANCHEZ AVENUE #3,BURLINGAME,94041,(408) 757-5494
1088948,WELLER'S WELDING & FABRICATION INC,PO BOX 1059,SOULSBYVILLE,95372,(209) 694-6121
808049,ROBECK'S WELDING & FABRICATION INC,1150 MABURY RD #1,SAN JOSE,95133,(408) 287-0202
948544,SIMON'S WELDING MFG,1300 ROCKEFELLER DR STE 1,CERES,95307,(209) 537-3300
1073635,ZAPIEN MECHANICAL & FABRICATION INC,P O BOX 941,CERES,95307,(209) 495-8256
995196,C M P VENTURES INC,1406 LAKE TAHOE COURT,CERES,95307,(209) 602-5031
764877,GREENWOOD MACHINE & FABRICATION INC,P O BOX 1099,CERES,95307,(209) 538-2277
229798,VISO JAMES J ENGINEERING INCORPORATED,P O BOX 150,SANTA CLARA,95050,(408) 296-2125
887969,WELDTEC MANUFACTURING,PO BOX 154,WATERFORD,95386,(209) 874-3809
1081980,"PACIFIC WELDING WORX, INC",PO BOX 347,HUGHSON,95326,(209) 380-2470
667762,US METAL,761 COLEMAN AVE,SAN JOSE,95110,(415) 350-5155
711184,ANYTIME WELDING INC,1195 NORTH 5TH STREET,SAN JOSE,95112,(408) 279-3292
707582,BAY WELDERS INC,1775 MONTEREY HWY BLDG 42A,SAN JOSE,95112,(408) 369-9515
1019700,SUPERIOR WELDING REPAIR INC,P O BOX 883,KEYES,95328,(209) 735-1230
1098010,DORANTES WELDING,565 NORTHLAKE DR APT 2,SAN JOSE,95117,(669) 588-7189
1089513,INDUSTRIAL SERVICES & WELDING INC,3800 CROWELL RD #74,TURLOCK,95382,(209) 398-1987
1100051,AMERICAN WELDING COMPANY,1780 PADDOCK LANE,TURLOCK,95382,(209) 777-9613
1081837,CALIFORNIA WELDING PROCESS SOLUTIONS,1445 BERRY DR,TURLOCK,95382,(209) 505-8147
1052633,BENTLINES ENGINEERING DESIGN,2930 GEER RD PMB 251,TURLOCK,95382,(503) 502-1703
1097101,INNOVATIVE WELDING INC.,1119 PEDRAS ROAD APT 443,TURLOCK,95382,(209) 646-9380
578727,DRAKE WELDING INC,834 CAMDEN AVENUE,CAMPBELL,95008,(408) 378-3277
922945,HOLSCHER WELDING,46033 PITTVILLE ROAD,MC ARTHUR,96056,(530) 227-0094
965775,IZNUTHIN FABRICATION AND CONSULTING,644255 LITTLE RED ROAD,MC ARTHUR,96056,(925) 550-8951
758725,LEE CHON MAN,3300 NARVAEZ AVE SPC 37,SAN JOSE,95136,(408) 234-9199
1085025,ARM WELDING INC,18930 ALLENDALE AVE,SARATOGA,95070,(408) 829-3451
706892,WILSON FENCING,14324 BERCAW LANE,SAN JOSE,95124,(408) 313-0291
988053,STEELPRO SPECIALTIES INC,P O BOX 2715,TURLOCK,95381,(209) 669-7855
795390,SANTOS INDUSTRIAL,P O BOX 521,TURLOCK,95381,(209) 634-5524
984009,PIMENTEL WELDING AND REPAIRS,917 WAYSIDE DRIVE,TURLOCK,95380,(209) 326-8421
957046,PERFORMANCE,3095 HUMPHREY CT,TURLOCK,95380,(209) 602-5947
1084088,PIMENTEL WELDING REPAIR INC,917 WAYSIDE DR,TURLOCK,95380,(209) 326-8421
1063689,SINGH'S WELDING,908 9TH STREET,TURLOCK,95380,(209) 675-0198
1068850,STEEL WORKS WELDING ASSEMBLY INC,4724 S COMMONS RD,TURLOCK,95380,(209) 656-1976
972030,ALL METAL FABRICATORS INC,1330 VENTURE LANE,TURLOCK,95380,(209) 634-3200
1050393,COST EFFECTIVE WELDING,3056 SPENGLER WY,TURLOCK,95380,(209) 250-2240
990249,PERNSTEINER & SONS FABRICATION INC,712 WEST HARDING ROAD,TURLOCK,95380,(209) 652-3445
992316,WILSON PORTABLE WELDING,P O BOX 705,DENAIR,95316,(209) 765-3596
727340,JB'S PORTABLE WELDING,5778 HILLBRIGHT COURT,SAN JOSE,95123,(408) 225-1714
1100445,CA WELDING & FABRICATION CO INC,5415 AVENIDA LUGO NORTH,LA GRANGE,95329,(209) 648-0951
869310,HAMILTON WELDING INSPECTION SERVICES,526 BERRY CREEK AVE,FORTUNA,95540,(530) 260-2112
889015,VICTORY WELDING AND FABRICATION,P O BOX 1354,HILMAR,95324,(209) 505-0403
1008409,ALL STEEL AMERICAN WELDING,1701 CANYONLANDS WAY,NEWMAN,95360,(209) 261-2008
1004890,NAVARRO'S WELDING AND FABRICATION,1232 BARRINGTON AVENUE,NEWMAN,95360,(209) 277-5482
951485,BOOTH JORDAN,P O BOX 1456,BOULDER CREEK,95006,(831) 325-3199
1038534,INDUSTRIAL VALLEY WELDING,11380 NORTH SANTA FE DRIVE,BALLICO,95303,(209) 204-7369
1038472,SMITH WELDING,16846 SONGBIRD DRIVE,DELHI,95315,(209) 531-5610
1040031,FUENTES DAVID,16371 SHEFFIELD STREET,DELHI,95315,(209) 535-4105
1033516,SAL PROCESS WELDING SERVICES INC,9154 N ROCHESTER AVENUE,DELHI,95315,(209) 486-5289
1005897,SANITARY WELDING MAINTENANCE & INSTALLATION,9172 TOTTENHAM AVE,DELHI,95315,(209) 277-2000
1083624,RAMIREZ JESSE WELDING,1738 PINE GROVE DRIVE,MOUNT SHASTA,96067,(530) 859-3500
1088115,MAYBEE'S WELDING,23584 FOURTH AVE,STEVINSON,95374,(209) 613-3355
652115,S T M BUILDERS,1922 GOLF COURSE RD,BAYSIDE,95524,(530) 218-5552
604622,CENTRAL COAST WELDING AND FABRICATION INC,140 INGALLS ST,SANTA CRUZ,95060,(831) 457-9400
933261,LITTON ROBERT WELDING,P O BOX 1602,SAN MARTIN,95046,(318) 422-0021
643073,SPAULDING MECHANICAL,2501 UNION STREET,EUREKA,95501,(707) 498-9425
711135,K AND M WELDING,1472 PECAN COURT,ATWATER,95301,(209) 769-7699
352410,STONEBOW CONSTRUCTION,11111 VISTA DRIVE,MC KINLEYVILLE,95519,(707) 839-1448
990736,COVARRUBIAS GABINO,222 E 22ND STREET,MERCED,95340,(209) 756-3908
1018822,V H WELDING,260 MONTE SERENO,WATSONVILLE,95076,(831) 435-9353
1006838,VILLEGAS WELDING,541 CENTER ST,WATSONVILLE,95076,(831) 809-7739
775148,LARGE'S METAL FABRICATION INC,P O BOX 144,WATSONVILLE,95077,(831) 724-4432
1053850,MERCURY METALS,P O BOX 2317,WATSONVILLE,95077,(831) 768-8045
1024305,J - CO FABRICATION,1003 WILSON AVENUE,LOS BANOS,93635,(209) 829-9457
829128,THOMAS J'S WELDING SERVICE,19625 SOUTH CREEK RD,LOS BANOS,93635,(209) 495-9945
848764,SANCTUARY STAINLESS,8162 MOSS LANDING RD,MOSS LANDING,95039,(831) 633-3867
910791,R & L WELDING,115 EMERALD WAY,SAN JUAN BAUTISTA,95045,(208) 670-2749
393679,WRIGHT BROS WELDING & SHEET METAL INC,P O BOX 695,HOLLISTER,95024,(831) 637-2789
897461,RAFTER M WELDING,480 MANSFIELD ROAD,HOLLISTER,95023,(831) 636-3154
1056224,D & N WELDING INC,1166 POLK ST,SALINAS,93906,(831) 682-7763
1013989,K C J WELDING,1037 MELVILLE STREET,SALINAS,93906,(831) 320-3359
953773,BOTELHO WELDING AND SHEET METAL INC,P O BOX 678,CHOWCHILLA,93610,(209) 485-2109
1001829,G Z WELDING,PO BOX 3468,SALINAS,93912,(831) 998-4336
1011944,INNOVATION STEEL ENTERPRISE INC,712 TOWT ST,SALINAS,93905,(831) 269-9229
900972,WELDERS FABRICATION & DESIGN,824 SAN ANTONIO DRIVE,SALINAS,93901,(831) 809-7539
967635,ALL PRO UNIVERSAL WELDING,1172 S MAIN ST #149,SALINAS,93901,(831) 737-2856
975330,WADE WELDING AND FABRICATION,PO BOX 51953,PACIFIC GROVE,93950,(831) 238-6524
1094293,ADVANCED CERTIFIED WELDING,24915 CALLE EL ROSARIO,SALINAS,93908,(831) 210-1862
1099866,EDWARDS SCOTT WELDING,26750 CLUB DR,MADERA,93638,(209) 638-2183
935964,SERGIO'S WELDING,1805 MERCED STREET,MADERA,93638,(559) 674-8454
1031652,PACIFIC METAL FAB & DESIGN INC,497 S PINE ST,MADERA,93637,(559) 661-4044
1057748,K F E CONSTRUCTION INC,668 FICKLIN DRIVE,MADERA,93637,(559) 479-2790
1008756,M T Y WELDING INC,668 FICKLIN DR,MADERA,93637,(559) 479-2790
1027567,CENTRAL CALIFORNIA WELDING INC,P O BOX 394,BIOLA,93606,(559) 573-0735
860670,MAMMOTH WELDING INC,P O BOX 33,MAMMOTH LAKES,93546,(760) 934-6495
1071515,G P S WELDING AND FABRICATION,7638 N INGRAM #210,FRESNO,93711,(559) 513-8131
815978,SAM'S WELDING,5136 WEST CLINTON,FRESNO,93722,(559) 289-2076
714869,A B WELDING INC,14680 FIDDLENECK LANE,PRATHER,93651,(559) 696-3016
627762,HIGH SIERRA WELDING INC,P O BOX 609,PRATHER,93651,(559) 281-3355
1068284,4D WELDING INC,P O BOX 68,PRATHER,93651,(559) 960-9986
941313,CHASSEY WELDING,327 WEST SAN RAMON,FRESNO,93704,(559) 260-0339
1023032,WICKS KODY THOMAS,11380 E SIERRA AVE,CLOVIS,93619,(559) 392-1674
1068790,DC WELDING INC,22254 AUBERRY RD,CLOVIS,93619,(559) 579-8000
1042972,WEST COAST STAINLESS WELDING INC,8163 E BULLARD,CLOVIS,93619,(559) 325-6992
1000043,VELA ROBERT JR,4427 N BOND AVENUE,FRESNO,93726,(559) 240-6645
948892,IRON BY CHAD,30005 OLIVIA DRIVE,GREENFIELD,93927,(831) 277-2014
1071820,M-CO,390 PARK CREEK DR,CLOVIS,93611,(559) 801-3539
1067414,LAWSON WELDING INC,2132 BEVERLY AVE,CLOVIS,93611,(559) 273-2247
982649,M - M FABRICATORS,944 MCKELVY AVENUE,CLOVIS,93611,(559) 285-4789
1011887,GRAYARMOR INC,P O BOX 26030,FRESNO,93729,(559) 900-4110
945900,1250 CONSTRUCTION INC,PO BOX 28547,FRESNO,93729,(559) 441-1900
967120,G & B MOBILE WELDING INC,P O BOX 8431,FRESNO,93747,(559) 255-7907
1033691,ALEX'S MOBILE WELDING,4755 E MONTECITO AVE,FRESNO,93702,(559) 479-0447
920672,MARK JAMES WELDING,60 WEST PARLIER AVENUE,FRESNO,93706,(559) 917-5710
1058809,TREBOL WELDING,946 N WALDBY AVENUE,FRESNO,93727,(559) 391-7515
1029893,DEZIGNED 2 PERFECTION WELDING,6190 E SUSSEX WAY,FRESNO,93727,(559) 217-6083
761967,EXCELSIOR CONSTRUCTION,2681 N BUSINESS PARK AVE,FRESNO,93727,(559) 346-0932
798903,PACIFIC FABRICATION,5807 E ATCHISON ST,FRESNO,93727,(559) 263-1100
865566,JOHNSON MARC WELDING,45155 PLAOMINO RD,KING CITY,93930,(831) 214-3266
1090994,PRECISION IRON WORKS,P O BOX 989,KING CITY,93930,(831) 596-6708
578924,CASELLA WELDING,14880 EAST SHAW,SANGER,93657,(559) 281-5965
1096452,ISAIAS BARRIGA,2409 S SIEGA AVENUE,FRESNO,93725,(559) 558-3829
702317,MAYFIELD WELDING INC,3673 E JENSEN,FRESNO,93725,(559) 237-2031
834679,STRATEGIC MECHANICAL INC,4661 E COMMERCE AVENUE,FRESNO,93725,(559) 291-1952
900629,ADVANCED ROOFING & RAINGUTTERS,2222 S FOWLER AVE,FRESNO,93725,(559) 441-7800
804268,ALL MECHANICAL SERVICES INC,3237 E MALAGA AVENUE #101,FRESNO,93725,(559) 486-2260
753952,DIAMOND WELD INDUSTRIES INC,P O BOX 811,PARLIER,93648,(559) 268-9999
480323,BEAR TRAP ENTERPRISES INC,P O BOX 556,COALINGA,93210,(559) 935-0206
1046457,PRISAZNIK DREW WELDING,289 W CYPRESS AVE,REEDLEY,93654,(209) 769-1005
911163,SEQUOIA VALLEY WELDING,31765 E KINGS CANYON RD,SQUAW VALLEY,93675,(559) 679-8216
1018230,GIVENS SPECIALTY WELDING,38743 HIGHWAY 99,KINGSBURG,93631,(559) 393-7078
931602,S & S FENCING,P O BOX 860,KINGSBURG,93631,(559) 897-5699
1098131,CARRILLO QUINONEZ JORGE ENRIQUE,40476 ROAD 36,KINGSBURG,93631,(559) 471-5614
589430,KROEBER ROGER STAINLESS STEEL SPECIALTIES INC,15250  18TH AVENUE,LEMOORE,93245,(559) 707-0054
581258,STEED'S WELDING SERVICE INC,P O BOX 278,LEMOORE,93245,(559) 731-4337
762247,AMERICAN STAINLESS PROFESSIONALS,763 BASIL COURT,LEMOORE,93245,(559) 816-3592
1095571,CUCO'S CUTS & WELDING,1408 AMARILLO ST,DINUBA,93618,(559) 393-2339
845619,CALIFORNIA STAINLESS SPECIALTIES,P O BOX 1693,HANFORD,93232,(559) 469-4993
970029,VINTAGE IRON WELDING CO,16452 11TH AVEDR,HANFORD,93230,(559) 707-1710
994123,J W WELDING,17496 9 1/2 AVENUE,HANFORD,93230,(559) 707-5029
1079462,KINGS COUNTY WELDING,11208 KAY CIRCLE,HANFORD,93230,(559) 352-1551
906894,HARP JIM STAINLESS STEEL WELDING INC,6731 NORTH 11TH AVENUE,HANFORD,93230,(559) 582-6011
775953,BROOKS STAINLESS STEEL WELDING INC,1453 UNIVERSITY AVENUE,HANFORD,93230,(559) 289-8483
920100,CALIFORNIA STAINLESS TECHNOLOGIES CORPORATION,10425 W GROVE AVENUE,VISALIA,93291,(559) 651-0460
1093242,KUUBIX WELDING,7143 W PERISHING CT,VISALIA,93291,(559) 740-7600
1056354,ROVALL WELDING & FABRICATION,6855 RANCHITA OAKS PLACE,SAN MIGUEL,93451,(805) 296-0519
935012,ROBINSON'S WELDING SERVICE INCORPORATED,5134 WEST IRIS COURT,VISALIA,93277,(559) 713-1503
1065033,FERREIRA FRANK,4127 S. NOYES ST,VISALIA,93277,(559) 972-1591
909572,PRECISION WELDING & INSTALLATION INC,P O BOX 6146,VISALIA,93290,(559) 300-2604
901801,A & E WELDING INC,1110 N CAIN,VISALIA,93292,(559) 738-9924
1018384,B R WELDING & FABRICATION,1716 E GOSHEN AVE,VISALIA,93292,(559) 471-5161
1069680,KAZARIAN WELDING SERVICE,1125 E HOWARD CT,VISALIA,93292,(559) 730-1401
761293,WILSON'S WELDING,4555 SOUTH K STREET,TULARE,93274,(559) 687-1796
917567,STAINLESS WORKS SPECIALTIES INCORPORATED,201 EAST OWENS AVENUE,TULARE,93274,(559) 688-4310
1092457,ADVANCED WELDING,993 N WEST STREET,TULARE,93274,(559) 837-0609
167881,LEVIN MORRIS AND SON,1816 SOUTH K STREET,TULARE,93274,(559) 686-8326
1100883,CHERRY WELDING AND IRONWORKS,4615 MONTEREY RD,PASO ROBLES,93446,(805) 400-7075
1056848,PEREGRINE STAINLESS LLC,4655 DEER CREEK WAY,PASO ROBLES,93446,(805) 610-7350
889867,THC WELDING,4740 TOWER RD,PASO ROBLES,93446,(805) 400-4127
1000015,NERELLI WELDING INC,215 24TH STREET,PASO ROBLES,93446,(805) 434-7818
982669,MITCH MADRID LANDSCAPING,2755 CONCRETE COURT UNIT A,PASO ROBLES,93446,(805) 440-3161
1046894,J & M WELDING INC,2755 CONCRETE COURT UNIT A,PASO ROBLES,93446,(805) 440-3161
594591,NORTH COUNTY WELDING & IRONWORKS,2120 TEXAS ROAD,PASO ROBLES,93446,(805) 467-2783
499129,JWC & WELDING INC,8445 NACIMIENTO LAKE RD,PASO ROBLES,93446,(805) 459-7302
1058618,L C I WELDING,8999 UNION ROAD,PASO ROBLES,93446,(805) 610-7230
964679,TOEVS MITCH WELDING,2101 VANDERLIP CT UNIT 4,PASO ROBLES,93446,(805) 550-2727
1073679,WESTERN INDUSTRIAL LLC,151 VIA ROBLES,PASO ROBLES,93446,(805) 975-2070
708114,PADILLA'S WELDING,2135 OAK STREET,PASO ROBLES,93446,(805) 835-9658
311499,BENTLEY'S CUSTOM IRON WORKS,4354 VALLEY LANE,PASO ROBLES,93447,(805) 239-0696
1000524,PATS WELDING SERVICES,P O BOX 4682,PASO ROBLES,93447,(805) 635-7033
981532,LAPOINTE SEAN WELDING,P O BOX 3421,PASO ROBLES,93447,(805) 441-4758
502167,GATES PAUL WELDING,P O BOX 1496,PASO ROBLES,93447,(805) 467-3538
491584,HANK'S WELDING SERVICE,PO BOX 1013,PASO ROBLES,93447,(805) 238-2404
774654,M J WELDING AND FABRICATION,P O BOX 2424,PASO ROBLES,93447,(805) 237-2923
1056328,ROBLES WELDING,514 WIGDAL AVE,CORCORAN,93212,(559) 737-8410
1065956,GARCIA WELDING & FABRICAITON,765 SHERWOOD WAY,LINDSAY,93247,(559) 920-8724
769004,DE LEO DOUG WELDING,P O BOX 878,LINDSAY,93247,(559) 562-3700
888870,DELEO DOUG WELDING INC,P O BOX 878,LINDSAY,93247,(559) 562-3700
1083990,CERROS OMAR,290 MATTHEW COURT,LINDSAY,93247,(559) 556-9997
1097581,SUPREME STAINLESS WELDING INC,290 MATTHEW COURT,LINDSAY,93247,(559) 556-9997
1091550,D M S WELDING,545 FOREST AVENUE,TEMPLETON,93465,(805) 610-8325
599301,BECK'S WHY INC,1770 PACIFIC AVE,CAYUCOS,93430,(805) 995-1005
907057,NIX RANDY CUSTOM WELDING & MANUFACTURING INC,P O BOX 730,STRATHMORE,93267,(559) 562-1958
1016252,OSBORNE WELDING & FABRICATION,14355 MESA RD,ATASCADERO,93422,(805) 610-9923
1010359,DUNCAN TYLER WELDING,10600 COLORADO RD,ATASCADERO,93422,(805) 714-1882
1047736,DRAGOMIR DESIGN-BUILD INC,3514 EL CAMINO REAL,ATASCADERO,93422,(714) 287-8137
998598,DNS INDUSTRIES INC,8555 O'DONOVAN RD,CRESTON,93432,(805) 227-4884
1085778,THORESEN WELDING SERVICES,PO BOX 273,MORRO BAY,93443,(805) 704-8894
1027173,NACHO LOPEZ WELDING CONSTRUCTION INC,7386 RD 134,EARLIMART,93219,(661) 204-4484
962599,LEWIS STEEL CONSTRUCTION,P O BOX 9290,TERRA BELLA,93270,(559) 333-2323
898889,COASTAL IRONWORKS,588 WOODLAND DRIVE,LOS OSOS,93402,(805) 528-7691
1053339,SCOTT'S WELDING & FABRICATION,2091 TAPIDERO AVE,LOS OSOS,93402,(805) 440-0018
826429,M M I M WELDING & FABRICATION,17530 DORAN DR,SPRINGVILLE,93265,(559) 360-2559
744892,ON - SITE WELDING AND EQUIPMENT REPAIR,905 CITEUS COURT,SAN LUIS OBISPO,93405,(805) 556-5843
969165,WILLIAMS WELDING,2039 CHERYLL CT,PORTERVILLE,93257,(661) 473-9470
979217,CENTRAL COAST WELDING INC,PO BOX 684,SAN LUIS OBISPO,93406,(805) 545-9353
944372,PAULS WELDING,1600 WILSON STREET,SAN LUIS OBISPO,93401,(805) 674-1799
898525,TANNER IAN CONSTRUCTION,763 ALPHONSO STREET,SAN LUIS OBISPO,93401,(805) 234-1404
835793,P D WELDING,P O BOX 699,WASCO,93280,(661) 809-7445
1067919,ZUGO WELDING CONSTRUCTION,2551 FLOWER ST,WASCO,93280,(661) 910-6154
635285,CANBY ARON WELDING,P O BOX 283,ARROYO GRANDE,93421,(805) 459-3557
846037,GOULD WELDING INC,P O BOX 112,ARROYO GRANDE,93421,(805) 474-8403
695054,EDLEBECK CHRISTOPHER DAVID,2570 TIENDA PLACE,ARROYO GRANDE,93420,(805) 459-8262
